H1 CPF 01  gfz 2021 05 11 00  6311 tandemx   
H2 1003001  6202 36605    2021 05 11 00 59 42 2021 05 16 00 00 42   120 1 1  0 0 0
H9
10 0 59346  82782.000000  0    1033958.238  -5631100.130   3821948.058
10 0 59346  82902.000000  0     750159.924  -5121679.713   4535705.328
10 0 59346  83022.000000  0     462993.974  -4517754.874   5169629.986
10 0 59346  83142.000000  0     179043.345  -3829906.758   5712596.624
10 0 59346  83262.000000  0     -95367.598  -3070288.886   6155090.367
10 0 59346  83382.000000  0    -354309.138  -2252403.596   6489367.293
10 0 59346  83502.000000  0    -592370.497  -1390857.679   6709582.811
10 0 59346  83622.000000  0    -804769.853   -501099.568   6811888.974
10 0 59346  83742.000000  0    -987448.692    400859.109   6794498.595
10 0 59346  83862.000000  0   -1137148.771   1298731.929   6657714.425
10 0 59346  83982.000000  0   -1251469.818   2176251.194   6403923.944
10 0 59346  84102.000000  0   -1328907.960   3017462.306   6037560.425
10 0 59346  84222.000000  0   -1368874.578   3807014.960   5565030.070
10 0 59346  84342.000000  0   -1371694.196   4530446.081   4994605.753
10 0 59346  84462.000000  0   -1338582.399   5174450.792   4336288.735
10 0 59346  84582.000000  0   -1271603.691   5727135.288   3601637.213
10 0 59346  84702.000000  0   -1173610.136   6178244.751   2803566.403
10 0 59346  84822.000000  0   -1048163.942   6519364.954   1956121.889
10 0 59346  84942.000000  0    -899440.785   6744088.635   1074227.654
10 0 59346  85062.000000  0    -732119.512   6848142.020    173417.309
10 0 59346  85182.000000  0    -551260.470   6829470.670   -730446.852
10 0 59346  85302.000000  0    -362175.369   6688280.683  -1621463.672
10 0 59346  85422.000000  0    -170292.645   6427030.973  -2483982.668
10 0 59346  85542.000000  0      18977.530   6050380.721  -3302884.118
10 0 59346  85662.000000  0     200375.981   5565095.696  -4063846.624
10 0 59346  85782.000000  0     368922.486   4979914.665  -4753597.298
10 0 59346  85902.000000  0     520035.412   4305379.609  -5360139.265
10 0 59346  86022.000000  0     649640.371   3553634.838  -5872953.070
10 0 59346  86142.000000  0     754264.970   2738199.338  -6283169.430
10 0 59346  86262.000000  0     831118.465   1873718.169  -6583710.969
10 0 59346  86382.000000  0     878155.223    975698.876  -6769402.672
10 0 59347    102.000000  0     894120.480     60236.047  -6837052.086
10 0 59347    222.000000  0     878578.525   -856272.208  -6785498.192
10 0 59347    342.000000  0     831922.110  -1757411.314  -6615627.501
10 0 59347    462.000000  0     755363.964  -2627035.231  -6330359.749
10 0 59347    582.000000  0     650910.456  -3449549.276  -5934605.754
10 0 59347    702.000000  0     521316.253  -4210188.263  -5435191.851
10 0 59347    822.000000  0     370022.588  -4895281.339  -4840752.139
10 0 59347    942.000000  0     201078.957  -5492501.796  -4161591.246
10 0 59347   1062.000000  0      19049.203  -5991097.344  -3409516.185
10 0 59347   1182.000000  0    -171095.831  -6382094.262  -2597638.899
10 0 59347   1302.000000  0    -364097.062  -6658471.763  -1740153.206
10 0 59347   1422.000000  0    -554534.809  -6815301.697   -852087.140
10 0 59347   1542.000000  0    -736962.161  -6849847.545     50963.872
10 0 59347   1662.000000  0    -906040.818  -6761620.395    953116.666
10 0 59347   1782.000000  0   -1056676.250  -6552390.954   1838487.401
10 0 59347   1902.000000  0   -1184148.381  -6226155.671   2691480.722
10 0 59347   2022.000000  0   -1284234.089  -5789057.479   3497073.579
10 0 59347   2142.000000  0   -1353317.700  -5249262.850   4241087.122
10 0 59347   2262.000000  0   -1388487.897  -4616799.458   4910438.888
10 0 59347   2382.000000  0   -1387618.653  -3903361.420   5493373.486
10 0 59347   2502.000000  0   -1349432.553  -3122083.300   5979668.618
10 0 59347   2622.000000  0   -1273543.987  -2287288.320   6360809.272
10 0 59347   2742.000000  0   -1160481.820  -1414220.524   6630129.535
10 0 59347   2862.000000  0   -1011692.799   -518763.793   6782923.908
10 0 59347   2982.000000  0    -829525.520    382848.927   6816524.433
10 0 59347   3102.000000  0    -617193.755   1274329.400   6730344.565
10 0 59347   3222.000000  0    -378719.406   2139628.135   6525889.081
10 0 59347   3342.000000  0    -118856.607   2963223.122   6206729.244
10 0 59347   3462.000000  0     157001.464   3730398.752   5778444.296
10 0 59347   3582.000000  0     442931.361   4427511.797   5248529.265
10 0 59347   3702.000000  0     732603.035   5042238.925   4626270.008
10 0 59347   3822.000000  0    1019415.802   5563802.503   3922585.198
10 0 59347   3942.000000  0    1296641.703   5983166.506   3149838.774
10 0 59347   4062.000000  0    1557578.976   6293206.342   2321626.889
10 0 59347   4182.000000  0    1795706.615   6488839.110   1452532.377
10 0 59347   4302.000000  0    2004837.228   6567112.972    557862.654
10 0 59347   4422.000000  0    2179265.454   6527253.077   -346627.902
10 0 59347   4542.000000  0    2313906.815   6370664.242  -1245023.234
10 0 59347   4662.000000  0    2404424.568   6100890.506  -2121533.481
10 0 59347   4782.000000  0    2447341.382   5723532.489  -2960779.476
10 0 59347   4902.000000  0    2440132.781   5246124.332  -3748068.126
10 0 59347   5022.000000  0    2381299.873   4677972.734  -4469651.792
10 0 59347   5142.000000  0    2270419.518   4029964.427  -5112965.642
10 0 59347   5262.000000  0    2108172.031   3314347.920  -5666839.703
10 0 59347   5382.000000  0    1896346.372   2544494.883  -6121683.966
10 0 59347   5502.000000  0    1637822.350   1734645.299  -6469643.419
10 0 59347   5622.000000  0    1336531.757    899643.476  -6704721.508
10 0 59347   5742.000000  0     997398.861     54668.672  -6822873.911
10 0 59347   5862.000000  0     626259.717   -785036.318  -6822070.658
10 0 59347   5982.000000  0     229763.027  -1604434.000  -6702325.599
10 0 59347   6102.000000  0    -184745.430  -2388953.242  -6465695.502
10 0 59347   6222.000000  0    -609354.917  -3124742.461  -6116250.653
10 0 59347   6342.000000  0   -1035736.610  -3798911.813  -5660011.937
10 0 59347   6462.000000  0   -1455301.871  -4399758.139  -5104857.424
10 0 59347   6582.000000  0   -1859371.060  -4916972.097  -4460398.625
10 0 59347   6702.000000  0   -2239350.011  -5341822.464  -3737824.974
10 0 59347   6822.000000  0   -2586910.244  -5667312.670  -2949718.458
10 0 59347   6942.000000  0   -2894168.879  -5888306.442  -2109841.154
10 0 59347   7062.000000  0   -3153864.706  -6001619.865  -1232898.123
10 0 59347   7182.000000  0   -3359526.001  -6006076.239   -334278.361
10 0 59347   7302.000000  0   -3505624.636  -5902520.333    570220.842
10 0 59347   7422.000000  0   -3587712.597  -5693791.929   1464679.230
10 0 59347   7542.000000  0   -3602537.541  -5384658.737   2333343.153
10 0 59347   7662.000000  0   -3548133.689  -4981709.706   3160911.904
10 0 59347   7782.000000  0   -3423886.172  -4493212.916   3932814.376
10 0 59347   7902.000000  0   -3230567.341  -3928941.261   4635470.952
10 0 59347   8022.000000  0   -2970344.314  -3299969.848   5256534.546
10 0 59347   8142.000000  0   -2646757.896  -2618451.523   5785106.365
10 0 59347   8262.000000  0   -2264673.312  -1897376.419   6211923.340
10 0 59347   8382.000000  0   -1830204.834  -1150320.624   6529516.406
10 0 59347   8502.000000  0   -1350614.133   -391186.289   6732336.468
10 0 59347   8622.000000  0    -834186.420    366058.721   6816842.919
10 0 59347   8742.000000  0    -290087.715   1107636.225   6781561.625
10 0 59347   8862.000000  0     271797.752   1820208.171   6627109.718
10 0 59347   8982.000000  0     841046.977   2491116.616   6356185.412
10 0 59347   9102.000000  0    1406890.922   3108608.401   5973523.164
10 0 59347   9222.000000  0    1958417.276   3662042.640   5485816.366
10 0 59347   9342.000000  0    2484780.835   4142078.355   4901606.715
10 0 59347   9462.000000  0    2975418.758   4540837.837   4231139.875
10 0 59347   9582.000000  0    3420263.701   4852040.871   3486189.579
10 0 59347   9702.000000  0    3809952.651   5071110.636   2679855.701
10 0 59347   9822.000000  0    4136029.072   5195247.454   1826331.158
10 0 59347   9942.000000  0    4391125.166   5223462.394    940647.206
10 0 59347  10062.000000  0    4569127.269   5156579.267     38403.469
10 0 59347  10182.000000  0    4665315.838   4997196.568   -864517.461
10 0 59347  10302.000000  0    4676477.674   4749612.159  -1752237.356
10 0 59347  10422.000000  0    4600988.318   4419715.768  -2609168.881
10 0 59347  10542.000000  0    4438862.053   4014850.673  -3420295.316
10 0 59347  10662.000000  0    4191767.746   3543648.055  -4171437.155
10 0 59347  10782.000000  0    3863011.353   3015838.852  -4849498.620
10 0 59347  10902.000000  0    3457487.443   2442048.606  -5442691.444
10 0 59347  11022.000000  0    2981599.978   1833580.268  -5940732.456
10 0 59347  11142.000000  0    2443154.773   1202189.455  -6335011.420
10 0 59347  11262.000000  0    1851226.646    559857.749  -6618727.693
10 0 59347  11382.000000  0    1216005.567    -81431.281  -6786995.825
10 0 59347  11502.000000  0     548622.434   -709911.281  -6836922.508
10 0 59347  11622.000000  0    -139043.943  -1314244.421  -6767649.548
10 0 59347  11742.000000  0    -834572.518  -1883719.737  -6580365.989
10 0 59347  11862.000000  0   -1525218.668  -2408438.298  -6278291.230
10 0 59347  11982.000000  0   -2198142.468  -2879483.118  -5866625.447
10 0 59347  12102.000000  0   -2840642.153  -3289069.722  -5352469.437
10 0 59347  12222.000000  0   -3440391.826  -3630677.332  -4744714.754
10 0 59347  12342.000000  0   -3985679.246  -3899157.319  -4053900.947
10 0 59347  12462.000000  0   -4465637.218  -4090815.585  -3292042.740
10 0 59347  12582.000000  0   -4870465.228  -4203467.932  -2472428.963
10 0 59347  12702.000000  0   -5191635.553  -4236466.057  -1609394.661
10 0 59347  12822.000000  0   -5422078.467  -4190692.775   -718070.807
99
